{
    "links": {
        "self": "http://www.neowsapp.com/rest/v1/neo/3828424?api_key=iIulBulltgU6a56xZRHN4H3l9WmuAYTsLGpBGhQ2"
    },
    "id": "3828424",
    "neo_reference_id": "3828424",
    "name": "(2018 RC5)",
    "designation": "2018 RC5",
    "nasa_jpl_url": "http://ssd.jpl.nasa.gov/sbdb.cgi?sstr=3828424",
    "absolute_magnitude_h": 24.3,
    "estimated_diameter": {
        "kilometers": {
            "estimated_diameter_min": 0.0366906138,
            "estimated_diameter_max": 0.0820427065
        },
        "meters": {
            "estimated_diameter_min": 36.6906137531,
            "estimated_diameter_max": 82.0427064882
        },
        "miles": {
            "estimated_diameter_min": 0.0227984834,
            "estimated_diameter_max": 0.0509789586
        },
        "feet": {
            "estimated_diameter_min": 120.3760332259,
            "estimated_diameter_max": 269.1689931548
        }
    },
    "is_potentially_hazardous_asteroid": false,
    "close_approach_data": [
        {
            "close_approach_date": "2018-08-15",
            "close_approach_date_full": "2018-Aug-15 11:14",
            "epoch_date_close_approach": 1534331640000,
            "relative_velocity": {
                "kilometers_per_second": "7.7261460247",
                "kilometers_per_hour": "27814.1256888369",
                "miles_per_hour": "17282.6160425998"
            },
            "miss_distance": {
                "astronomical": "0.081088214",
                "lunar": "31.543315246",
                "kilometers": "12130624.09650418",
                "miles": "7537620.289470484"
            },
            "orbiting_body": "Earth"
        }
    ],
    "orbital_data": {
        "orbit_id": "2",
        "orbit_determination_date": "2018-09-17 07:13:09",
        "first_observation_date": "2018-09-11",
        "last_observation_date": "2018-09-17",
        "data_arc_in_days": 6,
        "observations_used": 30,
        "orbit_uncertainty": "9",
        "minimum_orbit_intersection": ".0788244",
        "jupiter_tisserand_invariant": "3.558",
        "epoch_osculation": "2458374.5",
        "eccentricity": ".508566777020466",
        "semi_major_axis": "2.110350427842259",
        "inclination": "4.918528013449113",
        "ascending_node_longitude": "190.3083656972106",
        "orbital_period": "1119.773774582609",
        "perihelion_distance": "1.03709631237076",
        "perihelion_argument": "112.1232396087034",
        "aphelion_distance": "3.183604543313759",
        "perihelion_time": "2458329.179289126786",
        "mean_anomaly": "14.5703143658982",
        "mean_motion": ".3214935089314701",
        "equinox": "J2000",
        "orbit_class": {
            "orbit_class_type": "AMO",
            "orbit_class_description": "Near-Earth asteroid orbits similar to that of 1221 Amor",
            "orbit_class_range": "1.017 AU < q (perihelion) < 1.3 AU"
        }
    },
    "is_sentry_object": false
}